CCSDS_OMM_VERS = 2.0
CREATION_DATE  = 
ORIGINATOR     = 

OBJECT_NAME    = SL-16 R/B
OBJECT_ID      = 1993-016B
CENTER_NAME    = EARTH
REF_FRAME      = TEME
TIME_SYSTEM    = UTC
MEAN_ELEMENT_THEORY = SGP/SGP4

EPOCH          = 2026-02-03T03:33:11.402496
MEAN_MOTION    = 14.15303514
ECCENTRICITY   = .00099366
INCLINATION    = 71.0082
RA_OF_ASC_NODE = 287.7327
ARG_OF_PERICENTER = 2.7071
MEAN_ANOMALY   = 357.4104

EPHEMERIS_TYPE = 0
CLASSIFICATION_TYPE = U
NORAD_CAT_ID   = 22566
ELEMENT_SET_NO = 999
REV_AT_EPOCH   = 69728
BSTAR          = .72171759E-4
MEAN_MOTION_DOT = .93E-6
MEAN_MOTION_DDOT = 0

CCSDS_OMM_VERS = 2.0
CREATION_DATE  = 
ORIGINATOR     = 

OBJECT_NAME    = COSMOS 2242
OBJECT_ID      = 1993-024A
CENTER_NAME    = EARTH
REF_FRAME      = TEME
TIME_SYSTEM    = UTC
MEAN_ELEMENT_THEORY = SGP/SGP4

EPOCH          = 2026-02-03T11:13:32.151936
MEAN_MOTION    = 14.96398868
ECCENTRICITY   = .00179399
INCLINATION    = 82.5202
RA_OF_ASC_NODE = 299.4460
ARG_OF_PERICENTER = 62.6729
MEAN_ANOMALY   = 297.6317

EPHEMERIS_TYPE = 0
CLASSIFICATION_TYPE = U
NORAD_CAT_ID   = 22626
ELEMENT_SET_NO = 999
REV_AT_EPOCH   = 77527
BSTAR          = .23104241E-3
MEAN_MOTION_DOT = .2651E-4
MEAN_MOTION_DDOT = 0

CCSDS_OMM_VERS = 2.0
CREATION_DATE  = 
ORIGINATOR     = 

OBJECT_NAME    = SL-16 R/B
OBJECT_ID      = 1993-059B
CENTER_NAME    = EARTH
REF_FRAME      = TEME
TIME_SYSTEM    = UTC
MEAN_ELEMENT_THEORY = SGP/SGP4

EPOCH          = 2026-02-03T12:39:16.850304
MEAN_MOTION    = 14.17224722
ECCENTRICITY   = .00194862
INCLINATION    = 70.9894
RA_OF_ASC_NODE = 83.1719
ARG_OF_PERICENTER = 263.1051
MEAN_ANOMALY   = 96.7856

EPHEMERIS_TYPE = 0
CLASSIFICATION_TYPE = U
NORAD_CAT_ID   = 22803
ELEMENT_SET_NO = 999
REV_AT_EPOCH   = 67469
BSTAR          = .15216344E-3
MEAN_MOTION_DOT = .26E-5
MEAN_MOTION_DDOT = 0

CCSDS_OMM_VERS = 2.0
CREATION_DATE  = 
ORIGINATOR     = 

OBJECT_NAME    = ARIANE 40 R/B
OBJECT_ID      = 1993-061H
CENTER_NAME    = EARTH
REF_FRAME      = TEME
TIME_SYSTEM    = UTC
MEAN_ELEMENT_THEORY = SGP/SGP4

EPOCH          = 2026-02-03T04:51:01.808928
MEAN_MOTION    = 14.32841906
ECCENTRICITY   = .0011142
INCLINATION    = 98.4989
RA_OF_ASC_NODE = 103.7578
ARG_OF_PERICENTER = 32.0777
MEAN_ANOMALY   = 328.1083

EPHEMERIS_TYPE = 0
CLASSIFICATION_TYPE = U
NORAD_CAT_ID   = 22830
ELEMENT_SET_NO = 999
REV_AT_EPOCH   = 68916
BSTAR          = .10951E-3
MEAN_MOTION_DOT = .256E-5
MEAN_MOTION_DDOT = 0

CCSDS_OMM_VERS = 2.0
CREATION_DATE  = 
ORIGINATOR     = 

OBJECT_NAME    = COSMOS 2278
OBJECT_ID      = 1994-023A
CENTER_NAME    = EARTH
REF_FRAME      = TEME
TIME_SYSTEM    = UTC
MEAN_ELEMENT_THEORY = SGP/SGP4

EPOCH          = 2026-02-03T13:54:21.148416
MEAN_MOTION    = 14.14365024
ECCENTRICITY   = .00064009
INCLINATION    = 71.0508
RA_OF_ASC_NODE = 246.4629
ARG_OF_PERICENTER = 77.7386
MEAN_ANOMALY   = 282.4453

EPHEMERIS_TYPE = 0
CLASSIFICATION_TYPE = U
NORAD_CAT_ID   = 23087
ELEMENT_SET_NO = 999
REV_AT_EPOCH   = 63998
BSTAR          = -.95344909E-4
MEAN_MOTION_DOT = -.23E-5
MEAN_MOTION_DDOT = 0

CCSDS_OMM_VERS = 2.0
CREATION_DATE  = 
ORIGINATOR     = 

OBJECT_NAME    = SL-16 R/B
OBJECT_ID      = 1994-023B
CENTER_NAME    = EARTH
REF_FRAME      = TEME
TIME_SYSTEM    = UTC
MEAN_ELEMENT_THEORY = SGP/SGP4

EPOCH          = 2026-02-03T11:59:58.017120
MEAN_MOTION    = 14.15003908
ECCENTRICITY   = .00044193
INCLINATION    = 71.0000
RA_OF_ASC_NODE = 142.6902
ARG_OF_PERICENTER = 317.1200
MEAN_ANOMALY   = 42.9577

EPHEMERIS_TYPE = 0
CLASSIFICATION_TYPE = U
NORAD_CAT_ID   = 23088
ELEMENT_SET_NO = 999
REV_AT_EPOCH   = 64125
BSTAR          = -.68503446E-4
MEAN_MOTION_DOT = -.18E-5
MEAN_MOTION_DDOT = 0

CCSDS_OMM_VERS = 2.0
CREATION_DATE  = 
ORIGINATOR     = 

OBJECT_NAME    = SL-16 R/B
OBJECT_ID      = 1994-074B
CENTER_NAME    = EARTH
REF_FRAME      = TEME
TIME_SYSTEM    = UTC
MEAN_ELEMENT_THEORY = SGP/SGP4

EPOCH          = 2026-02-03T14:07:30.778752
MEAN_MOTION    = 14.79365594
ECCENTRICITY   = .00060607
INCLINATION    = 97.7151
RA_OF_ASC_NODE = 66.7807
ARG_OF_PERICENTER = 345.3268
MEAN_ANOMALY   = 179.2186

EPHEMERIS_TYPE = 0
CLASSIFICATION_TYPE = U
NORAD_CAT_ID   = 23343
ELEMENT_SET_NO = 999
REV_AT_EPOCH   = 68220
BSTAR          = .83835748E-4
MEAN_MOTION_DOT = .575E-5
MEAN_MOTION_DDOT = 0

CCSDS_OMM_VERS = 2.0
CREATION_DATE  = 
ORIGINATOR     = 

OBJECT_NAME    = SL-16 R/B
OBJECT_ID      = 1994-077B
CENTER_NAME    = EARTH
REF_FRAME      = TEME
TIME_SYSTEM    = UTC
MEAN_ELEMENT_THEORY = SGP/SGP4

EPOCH          = 2026-02-03T11:52:43.042368
MEAN_MOTION    = 14.15556643
ECCENTRICITY   = .00045265
INCLINATION    = 70.9815
RA_OF_ASC_NODE = 64.4294
ARG_OF_PERICENTER = 242.1040
MEAN_ANOMALY   = 117.9624

EPHEMERIS_TYPE = 0
CLASSIFICATION_TYPE = U
NORAD_CAT_ID   = 23405
ELEMENT_SET_NO = 999
REV_AT_EPOCH   = 61139
BSTAR          = -.51606559E-4
MEAN_MOTION_DOT = -.149E-5
MEAN_MOTION_DDOT = 0

CCSDS_OMM_VERS = 2.0
CREATION_DATE  = 
ORIGINATOR     = 

OBJECT_NAME    = ARIANE 40+ R/B
OBJECT_ID      = 1995-021B
CENTER_NAME    = EARTH
REF_FRAME      = TEME
TIME_SYSTEM    = UTC
MEAN_ELEMENT_THEORY = SGP/SGP4

EPOCH          = 2026-02-03T04:47:48.804288
MEAN_MOTION    = 14.39745720
ECCENTRICITY   = .00058145
INCLINATION    = 98.4567
RA_OF_ASC_NODE = 106.1376
ARG_OF_PERICENTER = 239.7952
MEAN_ANOMALY   = 140.8409

EPHEMERIS_TYPE = 0
CLASSIFICATION_TYPE = U
NORAD_CAT_ID   = 23561
ELEMENT_SET_NO = 999
REV_AT_EPOCH   = 61428
BSTAR          = .11837029E-3
MEAN_MOTION_DOT = .327E-5
MEAN_MOTION_DDOT = 0

CCSDS_OMM_VERS = 2.0
CREATION_DATE  = 
ORIGINATOR     = 

OBJECT_NAME    = SL-16 R/B
OBJECT_ID      = 1995-058B
CENTER_NAME    = EARTH
REF_FRAME      = TEME
TIME_SYSTEM    = UTC
MEAN_ELEMENT_THEORY = SGP/SGP4

EPOCH          = 2026-02-03T13:42:07.895808
MEAN_MOTION    = 14.15489126
ECCENTRICITY   = .00126047
INCLINATION    = 71.0189
RA_OF_ASC_NODE = 251.8870
ARG_OF_PERICENTER = 181.3263
MEAN_ANOMALY   = 178.7829

EPHEMERIS_TYPE = 0
CLASSIFICATION_TYPE = U
NORAD_CAT_ID   = 23705
ELEMENT_SET_NO = 999
REV_AT_EPOCH   = 56302
BSTAR          = .13115603E-3
MEAN_MOTION_DOT = .209E-5
MEAN_MOTION_DDOT = 0

CCSDS_OMM_VERS = 2.0
CREATION_DATE  = 
ORIGINATOR     = 

OBJECT_NAME    = SL-16 R/B
OBJECT_ID      = 1996-051B
CENTER_NAME    = EARTH
REF_FRAME      = TEME
TIME_SYSTEM    = UTC
MEAN_ELEMENT_THEORY = SGP/SGP4

EPOCH          = 2026-02-03T07:43:26.142240
MEAN_MOTION    = 14.12405722
ECCENTRICITY   = .00179248
INCLINATION    = 70.7567
RA_OF_ASC_NODE = 247.9843
ARG_OF_PERICENTER = 195.6748
MEAN_ANOMALY   = 164.3819

EPHEMERIS_TYPE = 0
CLASSIFICATION_TYPE = U
NORAD_CAT_ID   = 24298
ELEMENT_SET_NO = 999
REV_AT_EPOCH   = 51679
BSTAR          = .6166918E-4
MEAN_MOTION_DOT = .65E-6
MEAN_MOTION_DDOT = 0

CCSDS_OMM_VERS = 2.0
CREATION_DATE  = 
ORIGINATOR     = 

OBJECT_NAME    = ORBVIEW 2 (SEASTAR)
OBJECT_ID      = 1997-037A
CENTER_NAME    = EARTH
REF_FRAME      = TEME
TIME_SYSTEM    = UTC
MEAN_ELEMENT_THEORY = SGP/SGP4

EPOCH          = 2026-02-03T11:20:37.320288
MEAN_MOTION    = 14.35466901
ECCENTRICITY   = .00027415
INCLINATION    = 98.8508
RA_OF_ASC_NODE = 197.8895
ARG_OF_PERICENTER = 142.4057
MEAN_ANOMALY   = 217.7320

EPHEMERIS_TYPE = 0
CLASSIFICATION_TYPE = U
NORAD_CAT_ID   = 24883
ELEMENT_SET_NO = 999
REV_AT_EPOCH   = 50356
BSTAR          = .12459456E-3
MEAN_MOTION_DOT = .312E-5
MEAN_MOTION_DDOT = 0

